FLOCK 4G-21             
1 62651U 25009AU  26068.19487675  .00013648  00000+0  49619-3 0  9998
2 62651  97.4032 151.1274 0000465 329.5782  30.5431 15.28381075 63677
STARLINK-36105          
1 66850U 25281C   26068.16551601  .00030319  00000+0  11062-2 0  9997
2 66850  43.0051 346.5850 0001890 259.7852 100.2787 15.27596539 16102
